     3.00           N: GNSS NAV DATA    E: Galileo          RINEX VERSION / TYPE
PREC2NAV                                20121215 063313 UTC PGM / RUN BY / DATE 
SOURCE: data/tum%W%D.sp3                                    COMMENT             
                                                            END OF HEADER       
E12 2012 11 12 14  0  0  .492476100360E-03  .850818512821E-10  .000000000000E+00
      .800000000000E+01  .160789433634E+02  .400125731369E-08 -.220854601485E+01
      .751717175340E-06  .582584352068E-04  .337581349848E-05  .544058702633E+04
      .136800000000E+06 -.184054555224E-07  .119396669659E+01 -.184333446528E-07
      .956014353486E+00  .264580484930E+03  .291549041041E+01 -.600943775749E-08
      .135402780534E-09  .000000000000E+00  .171400000000E+04  .000000000000E+00
      .240000000000E+01  .000000000000E+00  .000000000000E+00  .000000000000E+00
      .140400000000E+06  .000000000000E+00
E11 2012 11 12 16  0  0  .366228470600E-03  .385748800000E-09  .000000000000E+00
      .900000000000E+01  .177724077675E+02  .401074373673E-08 -.599189646210E+00
      .811450613351E-06  .146376851999E-03  .355530776289E-05  .544058991620E+04
      .144000000000E+06 -.319472486062E-08  .119394874673E+01 -.154581959068E-07
      .956003684258E+00  .263099244974E+03  .149487988336E+01 -.600646756327E-08
      .210466795600E-09  .000000000000E+00  .171400000000E+04  .000000000000E+00
      .240000000000E+01  .000000000000E+00  .000000000000E+00  .000000000000E+00
      .147600000000E+06  .000000000000E+00
E12 2012 11 12 16  0  0  .493088652400E-03  .850663333333E-10  .000000000000E+00
      .900000000000E+01  .139431777286E+02  .403245295408E-08 -.132094864576E+01
      .689880656607E-06  .583715496566E-04  .335503934430E-05  .544058638101E+04
      .144000000000E+06  .224269309084E-07  .119392299162E+01  .439008241364E-08
      .956015376104E+00  .265456619823E+03  .292053724318E+01 -.603165098575E-08
      .181705993333E-09  .000000000000E+00  .171400000000E+04  .000000000000E+00
      .240000000000E+01  .000000000000E+00  .000000000000E+00  .000000000000E+00
      .147600000000E+06  .000000000000E+00
E11 2012 11 12 18  0  0  .369005994200E-03  .385758371795E-09  .000000000000E+00
      .100000000000E+02  .161612650321E+02  .398803269870E-08  .292748008215E+00
      .696252755587E-06  .146120986069E-03  .338884673553E-05  .544058935084E+04
      .151200000000E+06  .174427458959E-08  .119390529943E+01  .145482671270E-07
      .956005251730E+00  .264315108201E+03  .149558478083E+01 -.600906448960E-08
      .237509556767E-09  .000000000000E+00  .171400000000E+04  .000000000000E+00
      .240000000000E+01  .000000000000E+00  .000000000000E+00  .000000000000E+00
      .154800000000E+06  .000000000000E+00
E12 2012 11 12 18  0  0  .493701024280E-03  .850458256410E-10  .000000000000E+00
      .100000000000E+02  .123642199043E+02  .401039743378E-08 -.425158858458E+00
      .639854216005E-06  .585463840128E-04  .338471933479E-05  .544058690668E+04
      .151200000000E+06 -.195164445233E-07  .119387940293E+01  .187339410962E-07
      .956016879115E+00  .264609133472E+03  .291739158569E+01 -.601506349136E-08
      .213599244135E-09  .000000000000E+00  .171400000000E+04  .000000000000E+00
      .240000000000E+01  .000000000000E+00  .000000000000E+00  .000000000000E+00
      .154800000000E+06  .000000000000E+00
E11 2012 11 12 20  0  0  .371783571880E-03  .385776446154E-09  .000000000000E+00
      .110000000000E+02  .146874086352E+02  .394724911324E-08  .118433419227E+01
      .735984581018E-06  .146266403278E-03  .336055782725E-05  .544058979171E+04
      .158400000000E+06 -.115973854656E-07  .119386198944E+01  .770384323126E-08
      .956007037111E+00  .264187523312E+03  .149664080447E+01 -.599954912159E-08
      .247139689151E-09  .000000000000E+00  .171400000000E+04  .000000000000E+00
      .240000000000E+01  .000000000000E+00  .000000000000E+00  .000000000000E+00
      .162000000000E+06  .000000000000E+00
E12 2012 11 12 20  0  0  .494313369680E-03  .850502102564E-10  .000000000000E+00
      .110000000000E+02  .114559456075E+02  .396603628720E-08  .465645730510E+00
      .615127984829E-06  .593310599587E-04  .320967316709E-05  .544058855002E+04
      .158400000000E+06 -.219746080520E-07  .119383610752E+01  .842401844801E-09
      .956018479221E+00  .270105846492E+03 -.336395496236E+01 -.600824378821E-08
      .219536417858E-09  .000000000000E+00  .171400000000E+04  .000000000000E+00
      .240000000000E+01  .000000000000E+00  .000000000000E+00  .000000000000E+00
      .162000000000E+06  .000000000000E+00
E11 2012 11 12 22  0  0  .374561187240E-03  .385803725641E-09  .000000000000E+00
      .120000000000E+02  .158997048621E+02  .389213210823E-08  .206978678803E+01
      .796543746576E-06  .146108166639E-03  .313713426096E-05  .544059199590E+04
      .165600000000E+06 -.144942489973E-07  .119381878139E+01  .502158738313E-08
      .956008800253E+00  .271563545676E+03 -.477935581687E+01 -.600279478058E-08
      .247749555328E-09  .000000000000E+00  .171400000000E+04  .000000000000E+00
      .240000000000E+01  .000000000000E+00  .000000000000E+00  .000000000000E+00
      .169200000000E+06  .000000000000E+00
E12 2012 11 12 22  0  0  .494925892200E-03  .850936871795E-10  .000000000000E+00
      .120000000000E+02  .245598440709E+02  .391216423207E-08  .133297286780E+01
      .109209303580E-05  .604960150166E-04  .313826695094E-05  .544059253351E+04
      .165600000000E+06  .161124021371E-07  .119379237474E+01 -.400457088082E-07
      .956019931992E+00  .272182707143E+03 -.333864042071E+01 -.605686861401E-08
      .256962800391E-09  .000000000000E+00  .171400000000E+04  .000000000000E+00
      .240000000000E+01  .000000000000E+00  .000000000000E+00  .000000000000E+00
      .169200000000E+06  .000000000000E+00
E11 2012 11 13  0  0  0  .377338538600E-03  .385616389744E-09  .000000000000E+00
      .130000000000E+02  .286672631318E+02  .388829403290E-08  .295483544767E+01
      .132630230357E-05  .144614808928E-03  .322738764140E-05  .544059585584E+04
      .172800000000E+06  .254501483055E-06  .119377383217E+01  .214524220188E-06
      .956010362388E+00  .269339188722E+03 -.477176425944E+01 -.610392807504E-08
      .486338351815E-09  .000000000000E+00  .171400000000E+04  .000000000000E+00
      .240000000000E+01  .000000000000E+00  .000000000000E+00  .000000000000E+00
      .176400000000E+06  .000000000000E+00
E12 2012 11 13  0  0  0  .495538112920E-03  .848974871795E-10  .000000000000E+00
      .130000000000E+02  .276994862109E+02  .391120548941E-08  .221138940564E+01
      .126382406717E-05  .605547750059E-04  .323751295726E-05  .544059424090E+04
      .172800000000E+06  .345478795010E-06  .119374950305E+01 -.150576884843E-07
      .956021699888E+00  .266071590730E+03 -.332441804726E+01 -.617496000866E-08
      .145575413461E-09  .000000000000E+00  .171400000000E+04  .000000000000E+00
      .240000000000E+01  .000000000000E+00  .000000000000E+00  .000000000000E+00
      .176400000000E+06  .000000000000E+00
